ONEWEB-0687             
1 61595U 24188B   25293.87998282  .00000104  00000+0  23395-3 0  9992
2 61595  87.9096  53.4919 0001820  79.9371 280.1966 13.17650442 54380
ONEWEB-0688             
1 61596U 24188C   25293.75679503  .00000020  00000+0  19258-4 0  9993
2 61596  87.9097  53.5165 0001088  48.0396 312.0828 13.17648976 54365
ONEWEB-0689             
1 61597U 24188D   25293.84781356  .00000118  00000+0  29596-3 0  9997
2 61597  87.8804  68.7087 0001822  89.0618 271.0718 13.11415280 53084
ONEWEB-0690             
1 61598U 24188E   25293.85797321 -.00000521  00000+0 -15061-2 0  9999
2 61598  87.8842  68.7032 0001458 125.9798 234.1465 13.11415047 53261
ONEWEB-0691             
1 61599U 24188F   25293.85289673 -.00000158  00000+0 -48078-3 0  9997
2 61599  87.8772  68.6327 0001243  86.3865 273.7406 13.11415386 53111
ONEWEB-0692             
1 61600U 24188G   25293.87322685 -.00000634  00000+0 -18258-2 0  9998
2 61600  87.8820  68.7561 0002514 102.7624 257.3786 13.11416494 53106
ONEWEB-0693             
1 61601U 24188H   25293.84452906  .00000030  00000+0  45012-4 0  9994
2 61601  87.9099  53.5178 0001205 128.4136 231.7104 13.17648185 54360
ONEWEB-0695             
1 61602U 24188J   25293.84950979  .00000001  00000+0 -34325-4 0  9992
2 61602  87.8820  68.7488 0002135  91.1793 268.9579 13.11414661 53093
